NORAD_CAT_ID,OBJECT_NAME,OBJECT_TYPE,EPOCH,MEAN_MOTION,ECCENTRICITY,INCLINATION,RA_OF_ASC_NODE,ARG_OF_PERICENTER,MEAN_ANOMALY,BSTAR,MEAN_MOTION_DOT,MEAN_MOTION_DDOT,TLE_LINE0,TLE_LINE1,TLE_LINE2,SEMIMAJOR_AXIS,PERIOD,APOGEE,PERIGEE,DECAYED
54771.0,STARLINK-5451,PAYLOAD,2023-04-27 20:12:16,15.08837171,0.000127,53.2206,58.4014,69.1078,291.0051,0.00040603,6.179e-05,0.0,0 STARLINK-5451,1 54771U 22175P   23117.84185350  .00006179  00000-0  40603-3 0  9998,2 54771  53.2206  58.4014 0001270  69.1078 291.0051 15.08837171 19792,6917.889,95.438,540.633,538.875,0.0
54771.0,STARLINK-5451,PAYLOAD,2023-04-28 05:44:34,15.08855459,0.0001473,53.2188,56.6144,81.6798,278.4361,0.0004763,7.304e-05,0.0,0 STARLINK-5451,1 54771U 22175P   23118.23928921  .00007304  00000-0  47630-3 0  9999,2 54771  53.2188  56.6144 0001473  81.6798 278.4361 15.08855459 19857,6917.833,95.437,540.717,538.679,0.0
54771.0,STARLINK-5451,PAYLOAD,2023-04-29 02:24:35,15.08842899,0.0001253,53.2191,52.7502,85.2828,274.8308,-4.3135e-05,-9.74e-06,0.0,0 STARLINK-5451,1 54771U 22175P   23119.10041286 -.00000974  00000-0 -43135-4 0  9991,2 54771  53.2191  52.7502 0001253  85.2828 274.8308 15.08842899 19985,6917.872,95.437,540.603,538.87,0.0
54771.0,STARLINK-5451,PAYLOAD,2023-04-30 03:50:45,15.08850412,0.0001286,53.22,47.9943,89.8916,270.2223,0.00022012,3.218e-05,0.0,0 STARLINK-5451,1 54771U 22175P   23120.16024833  .00003218  00000-0  22012-3 0  9990,2 54771  53.2200  47.9943 0001286  89.8916 270.2223 15.08850412 20141,6917.849,95.437,540.603,538.824,0.0
54771.0,STARLINK-5451,PAYLOAD,2023-05-01 02:06:10,15.08833578,0.0001223,53.2195,43.8348,98.6235,261.4896,3.0024e-05,1.9e-06,0.0,0 STARLINK-5451,1 54771U 22175P   23121.08761923  .00000190  00000-0  30024-4 0  9999,2 54771  53.2195  43.8348 0001223  98.6235 261.4896 15.08833578 20288,6917.9,95.438,540.611,538.919,0.0
54771.0,STARLINK-5451,PAYLOAD,2023-05-01 22:46:10,15.08845198,0.0001394,53.2197,39.9713,112.5682,247.5457,4.8411e-05,4.83e-06,0.0,0 STARLINK-5451,1 54771U 22175P   23121.94873629  .00000483  00000-0  48411-4 0  9995,2 54771  53.2197  39.9713 0001394 112.5682 247.5457 15.08845198 20417,6917.865,95.437,540.694,538.765,0.0
54771.0,STARLINK-5451,PAYLOAD,2023-05-02 03:32:20,15.08852227,0.0001179,53.2186,39.0702,88.3857,271.727,0.00048459,7.435e-05,0.0,0 STARLINK-5451,1 54771U 22175P   23122.14745579  .00007435  00000-0  48459-3 0  9995,2 54771  53.2186  39.0702 0001179  88.3857 271.7270 15.08852227 22605,6917.843,95.437,540.524,538.892,0.0
54771.0,STARLINK-5451,PAYLOAD,2023-05-02 19:26:11,15.0884755,0.0001304,53.2182,36.0997,80.634,279.48,0.00027727,4.128e-05,0.0,0 STARLINK-5451,1 54771U 22175P   23122.80985696  .00004128  00000-0  27727-3 0  9995,2 54771  53.2182  36.0997 0001304  80.6340 279.4800 15.08847550 22704,6917.857,95.437,540.624,538.82,0.0
54771.0,STARLINK-5451,PAYLOAD,2023-05-03 03:23:06,15.08854308,0.0001179,53.2184,34.6126,87.4746,272.6382,0.00033564,5.06e-05,0.0,0 STARLINK-5451,1 54771U 22175P   23123.14105206  .00005060  00000-0  33564-3 0  9996,2 54771  53.2184  34.6126 0001179  87.4746 272.6382 15.08854308 20593,6917.837,95.437,540.517,538.886,0.0
54771.0,STARLINK-5451,PAYLOAD,2023-05-03 11:20:03,15.08839368,0.0001632,53.2188,33.1294,73.0492,287.0679,1.7228e-05,-1.4e-07,0.0,0 STARLINK-5451,1 54771U 22175P   23123.47225962 -.00000014  00000-0  17228-4 0  9999,2 54771  53.2188  33.1294 0001632  73.0492 287.0679 15.08839368 20644,6917.882,95.438,540.876,538.618,0.0
54771.0,STARLINK-5451,PAYLOAD,2023-05-04 11:10:50,15.08842695,0.0001181,53.2191,28.664,93.833,266.2797,0.00012885,1.764e-05,0.0,0 STARLINK-5451,1 54771U 22175P   23124.46585768  .00001764  00000-0  12885-3 0  9997,2 54771  53.2191  28.6640 0001181  93.8330 266.2797 15.08842695 22955,6917.872,95.437,540.554,538.92,0.0
54771.0,STARLINK-5451,PAYLOAD,2023-05-04 20:43:08,15.08847272,0.0001167,53.218,26.8814,91.1689,268.9437,0.00025111,3.712e-05,0.0,0 STARLINK-5451,1 54771U 22175P   23124.86329726  .00003712  00000-0  25111-3 0  9992,2 54771  53.2180  26.8814 0001167  91.1689 268.9437 15.08847272 23012,6917.858,95.437,540.53,538.916,0.0
54771.0,STARLINK-5451,PAYLOAD,2023-05-04 23:53:55,15.08851331,0.0001218,53.2182,26.2868,89.5692,270.544,0.00044063,6.734e-05,0.0,0 STARLINK-5451,1 54771U 22175P   23124.99577665  .00006734  00000-0  44063-3 0  9997,2 54771  53.2182  26.2868 0001218  89.5692 270.5440 15.08851331 20874,6917.846,95.437,540.553,538.868,0.0
54771.0,STARLINK-5451,PAYLOAD,2023-05-05 20:33:55,15.08846008,0.0001551,53.2175,22.417,107.1185,252.9977,0.00019249,2.777e-05,0.0,0 STARLINK-5451,1 54771U 22175P   23125.85689740  .00002777  00000-0  19249-3 0  9992,2 54771  53.2175  22.4170 0001551 107.1185 252.9977 15.08846008 23163,6917.862,95.437,540.8,538.654,0.0
54771.0,STARLINK-5451,PAYLOAD,2023-05-05 23:44:42,15.08844616,0.0001253,53.2177,21.8239,101.0554,259.0579,0.00021436,3.126e-05,0.0,0 STARLINK-5451,1 54771U 22175P   23125.98937833  .00003126  00000-0  21436-3 0  9995,2 54771  53.2177  21.8239 0001253 101.0554 259.0579 15.08844616 21028,6917.866,95.437,540.598,538.864,0.0
54771.0,STARLINK-5451,PAYLOAD,2023-05-07 02:46:15,15.08850866,0.0001188,53.2175,16.7708,87.0614,273.0514,0.00025169,3.721e-05,0.0,0 STARLINK-5451,1 54771U 22175P   23127.11545545  .00003721  00000-0  25169-3 0  9995,2 54771  53.2175  16.7708 0001188  87.0614 273.0514 15.08850866 21194,6917.847,95.437,540.534,538.89,0.0
54771.0,STARLINK-5451,PAYLOAD,2023-05-07 20:15:30,15.08832612,0.0001217,53.2167,13.4927,83.0102,277.1028,-6.6739e-06,-3.94e-06,0.0,0 STARLINK-5451,1 54771U 22175P   23127.84410597 -.00000394  00000-0 -66739-5 0  9998,2 54771  53.2167  13.4927 0001217  83.0102 277.1028 15.08832612 21300,6917.903,95.438,540.61,538.926,0.0
54771.0,STARLINK-5451,PAYLOAD,2023-05-07 21:50:53,15.08833175,0.0001155,53.2161,13.1959,70.9914,289.1203,3.2507e-06,-2.36e-06,0.0,0 STARLINK-5451,1 54771U 22175P   23127.91034611 -.00000236  00000-0  32507-5 0  9995,2 54771  53.2161  13.1959 0001155  70.9914 289.1203 15.08833175 23476,6917.901,95.438,540.565,538.967,0.0
54771.0,STARLINK-5451,PAYLOAD,2023-05-08 20:06:17,15.08849873,0.0001173,53.2164,9.0406,101.2659,258.8465,0.00034038,5.135e-05,0.0,0 STARLINK-5451,1 54771U 22175P   23128.83770280  .00005135  00000-0  34038-3 0  9997,2 54771  53.2164   9.0406 0001173 101.2659 258.8465 15.08849873 21455,6917.85,95.437,540.527,538.904,0.0
54771.0,STARLINK-5451,PAYLOAD,2023-05-08 21:41:40,15.08853105,0.0001211,53.2163,8.7438,103.8552,256.2575,0.00052677,8.109e-05,0.0,0 STARLINK-5451,1 54771U 22175P   23128.90394287  .00008109  00000-0  52677-3 0  9997,2 54771  53.2163   8.7438 0001211 103.8552 256.2575 15.08853105 23626,6917.84,95.437,540.543,538.868,0.0
54771.0,STARLINK-5451,PAYLOAD,2023-05-08 23:17:03,15.08857672,0.0001281,53.2166,8.4471,108.81,251.3031,0.00083549,0.0001304,0.0,0 STARLINK-5451,1 54771U 22175P   23128.97018292  .00013040  00000-0  83549-3 0  9995,2 54771  53.2166   8.4471 0001281 108.8100 251.3031 15.08857672 23631,6917.826,95.436,540.578,538.805,0.0
54771.0,STARLINK-5451,PAYLOAD,2023-05-09 23:07:51,15.08840964,0.0001428,53.2173,3.9873,74.8206,285.2944,2.8449e-05,1.65e-06,0.0,0 STARLINK-5451,1 54771U 22175P   23129.96378514  .00000165  00000-0  28449-4 0  9994,2 54771  53.2173   3.9873 0001428  74.8206 285.2944 15.08840964 23788,6917.877,95.437,540.73,538.755,0.0
54771.0,STARLINK-5451,PAYLOAD,2023-05-10 21:23:14,15.08843602,0.0001328,53.218,359.8227,86.1403,273.9741,0.00010543,1.391e-05,0.0,0 STARLINK-5451,1 54771U 22175P   23130.89114476  .00001391  00000-0  10543-3 0  9990,2 54771  53.2180 359.8227 0001328  86.1403 273.9741 15.08843602 23923,6917.869,95.437,540.653,538.816,0.0
54771.0,STARLINK-5451,PAYLOAD,2023-05-10 22:58:37,15.08847259,0.0001236,53.2168,359.526,91.5385,268.5749,0.00013887,1.923e-05,0.0,0 STARLINK-5451,1 54771U 22175P   23130.95738318  .00001923  00000-0  13887-3 0  9999,2 54771  53.2168 359.5260 0001236  91.5385 268.5749 15.08847259 23931,6917.858,95.437,540.578,538.868,0.0
54771.0,STARLINK-5451,PAYLOAD,2023-05-11 21:14:02,15.08838246,0.0001386,53.217,355.3635,79.4851,280.6297,0.00014754,2.061e-05,0.0,0 STARLINK-5451,1 54771U 22175P   23131.88475067  .00002061  00000-0  14754-3 0  9999,2 54771  53.2170 355.3635 0001386  79.4851 280.6297 15.08838246 21918,6917.886,95.438,540.71,538.792,0.0
54771.0,STARLINK-5451,PAYLOAD,2023-05-12 21:04:49,15.08848844,0.0001229,53.2175,350.9012,83.9387,276.1745,0.00026849,3.989e-05,0.0,0 STARLINK-5451,1 54771U 22175P   23132.87834825  .00003989  00000-0  26849-3 0  9998,2 54771  53.2175 350.9012 0001229  83.9387 276.1745 15.08848844 24223,6917.853,95.437,540.569,538.868,0.0
54771.0,STARLINK-5451,PAYLOAD,2023-05-13 09:47:54,15.08844511,0.0001337,53.2173,348.5246,78.2297,281.8845,0.0002171,3.169e-05,0.0,0 STARLINK-5451,1 54771U 22175P   23133.40826990  .00003169  00000-0  21710-3 0  9994,2 54771  53.2173 348.5246 0001337  78.2297 281.8845 15.08844511 22140,6917.867,95.437,540.657,538.807,0.0
54771.0,STARLINK-5451,PAYLOAD,2023-05-13 20:55:36,15.08842483,0.0001171,53.217,346.4417,82.1275,277.985,8.6034e-05,1.082e-05,0.0,0 STARLINK-5451,1 54771U 22175P   23133.87194976  .00001082  00000-0  86034-4 0  9990,2 54771  53.2170 346.4417 0001171  82.1275 277.9850 15.08842483 24375,6917.873,95.437,540.548,538.928,0.0
54771.0,STARLINK-5451,PAYLOAD,2023-05-14 14:24:50,15.08842265,0.0001153,53.2169,343.1708,95.2199,264.8925,-4.1782e-05,-9.53e-06,0.0,0 STARLINK-5451,1 54771U 22175P   23134.60058930 -.00000953  00000-0 -41782-4 0  9990,2 54771  53.2169 343.1708 0001153  95.2199 264.8925 15.08842265 22329,6917.873,95.437,540.536,538.941,0.0
54771.0,STARLINK-5451,PAYLOAD,2023-05-14 20:46:23,15.08849137,0.0001076,53.2174,341.9805,87.9283,272.1832,3.4657e-05,2.64e-06,0.0,0 STARLINK-5451,1 54771U 22175P   23134.86554545  .00000264  00000-0  34657-4 0  9997,2 54771  53.2174 341.9805 0001076  87.9283 272.1832 15.08849137 24523,6917.852,95.437,540.462,538.973,0.0
